H1 CPF 01  gfz 2021 08 23 00  7351 terrasarx 
H2 0702601  6201 31698    2021 08 23 00 59 42 2021 08 28 00 00 42   120 1 1  0 0 0
H9
10 0 59449  69822.000000  0   -6118001.652   2557713.084  -1876502.044
10 0 59449  69942.000000  0   -5768834.349   2604561.291  -2727854.281
10 0 59449  70062.000000  0   -5318727.597   2599005.556  -3531307.878
10 0 59449  70182.000000  0   -4776556.488   2539500.945  -4272818.994
10 0 59449  70302.000000  0   -4152803.147   2425612.745  -4939463.047
10 0 59449  70422.000000  0   -3459343.524   2258044.535  -5519654.131
10 0 59449  70542.000000  0   -2709213.906   2038643.283  -6003336.942
10 0 59449  70662.000000  0   -1916361.483   1770381.408  -6382151.386
10 0 59449  70782.000000  0   -1095381.928   1457315.757  -6649565.443
10 0 59449  70902.000000  0    -261252.941   1104525.304  -6800976.045
10 0 59449  71022.000000  0     570933.657    718028.958  -6833779.083
10 0 59449  71142.000000  0    1386237.619    304685.110  -6747410.915
10 0 59449  71262.000000  0    2170133.734   -127927.718  -6543357.497
10 0 59449  71382.000000  0    2908764.473   -571646.088  -6225130.953
10 0 59449  71502.000000  0    3589181.859  -1017871.261  -5798215.711
10 0 59449  71622.000000  0    4199572.565  -1457730.726  -5269982.806
10 0 59449  71742.000000  0    4729466.000  -1882250.894  -4649574.986
10 0 59449  71862.000000  0    5169919.999  -2282537.719  -3947759.268
10 0 59449  71982.000000  0    5513680.118  -2649960.793  -3176749.962
10 0 59449  72102.000000  0    5755309.649  -2976337.537  -2350003.051
10 0 59449  72222.000000  0    5891285.578  -3254113.233  -1481984.264
10 0 59449  72342.000000  0    5920058.034  -3476532.323   -587916.063
10 0 59449  72462.000000  0    5842071.414  -3637797.226    316493.131
10 0 59449  72582.000000  0    5659745.457  -3733209.885   1215331.144
10 0 59449  72702.000000  0    5377416.843  -3759292.925   2092771.400
10 0 59449  72822.000000  0    5001239.691  -3713884.276   2933361.199
10 0 59449  72942.000000  0    4539050.773  -3596205.335   3722300.846
10 0 59449  73062.000000  0    4000203.258  -3406900.103   4445709.488
10 0 59449  73182.000000  0    3395372.236  -3148046.218   5090873.194
10 0 59449  73302.000000  0    2736335.507  -2823135.245   5646468.407
10 0 59449  73422.000000  0    2035738.471  -2437024.065   6102757.671
10 0 59449  73542.000000  0    1306846.255  -1995859.635   6451755.214
10 0 59449  73662.000000  0     563289.247  -1506978.423   6687360.616
10 0 59449  73782.000000  0    -181193.308   -978781.939   6805459.385
10 0 59449  73902.000000  0    -913006.889   -420590.900   6803989.782
10 0 59449  74022.000000  0   -1618948.670    157519.176   6682976.144
10 0 59449  74142.000000  0   -2286444.698    744899.355   6444528.630
10 0 59449  74262.000000  0   -2903773.565   1330522.514   6092809.006
10 0 59449  74382.000000  0   -3460273.313   1903189.338   5633962.935
10 0 59449  74502.000000  0   -3946529.121   2451742.361   5076019.460
10 0 59449  74622.000000  0   -4354537.890   2965285.090   4428756.698
10 0 59449  74742.000000  0   -4677846.435   3433400.413   3703534.983
10 0 59449  74862.000000  0   -4911659.593   3846364.167   2913100.039
10 0 59449  74982.000000  0   -5052915.763   4195350.067   2071359.636
10 0 59449  75102.000000  0   -5100329.044   4472621.166   1193136.441
10 0 59449  75222.000000  0   -5054394.392   4671701.501    293900.391
10 0 59449  75342.000000  0   -4917356.816   4787522.488   -610511.207
10 0 59449  75462.000000  0   -4693145.865   4816543.252  -1504181.816
10 0 59449  75582.000000  0   -4387273.935   4756839.878  -2371405.811
10 0 59449  75702.000000  0   -4006703.982   4608160.080  -3196972.040
10 0 59449  75822.000000  0   -3559689.138   4371943.243  -3966435.237
10 0 59449  75942.000000  0   -3055589.496   4051306.553  -4666368.309
10 0 59449  76062.000000  0   -2504672.167   3650998.562  -5284591.537
10 0 59449  76182.000000  0   -1917900.215   3177323.303  -5810376.899
10 0 59449  76302.000000  0   -1306712.829   2638034.742  -6234625.632
10 0 59449  76422.000000  0    -682802.044   2042203.913  -6550014.536
10 0 59449  76542.000000  0     -57891.439   1400063.811  -6751110.505
10 0 59449  76662.000000  0     556479.389    722833.795  -6834454.301
10 0 59449  76782.000000  0    1149162.751     22526.964  -6798614.723
10 0 59449  76902.000000  0    1709601.242   -688259.147  -6644210.113
10 0 59449  77022.000000  0    2228010.765  -1396563.534  -6373897.568
10 0 59449  77142.000000  0    2695548.328  -2089291.961  -5992332.435
10 0 59449  77262.000000  0    3104461.812  -2753453.338  -5506097.235
10 0 59449  77382.000000  0    3448221.024  -3376402.197  -4923600.370
10 0 59449  77502.000000  0    3721625.422  -3946080.561  -4254939.756
10 0 59449  77622.000000  0    3920885.649  -4451252.433  -3511737.780
10 0 59449  77742.000000  0    4043680.096  -4881729.616  -2706948.969
10 0 59449  77862.000000  0    4089184.202  -5228583.997  -1854639.957
10 0 59449  77982.000000  0    4058068.612  -5484339.596   -969744.276
10 0 59449  78102.000000  0    3952467.571  -5643138.397    -67798.110
10 0 59449  78222.000000  0    3775916.731  -5700876.176    835338.498
10 0 59449  78342.000000  0    3533262.502  -5655304.453   1723768.313
10 0 59449  78462.000000  0    3230544.464  -5506094.318   2581846.922
10 0 59449  78582.000000  0    2874852.676  -5254860.797   3394465.875
10 0 59449  78702.000000  0    2474166.019  -4905148.971   4147324.872
10 0 59449  78822.000000  0    2037175.424  -4462381.050   4827187.561
10 0 59449  78942.000000  0    1573095.503  -3933766.042   5422115.565
10 0 59449  79062.000000  0    1091470.050  -3328174.826   5921677.173
10 0 59449  79182.000000  0     601974.239  -2655982.883   6317125.946
10 0 59449  79302.000000  0     114219.974  -1928886.433   6601546.814
10 0 59449  79422.000000  0    -362431.890  -1159695.450   6769970.116
10 0 59449  79542.000000  0    -819049.837   -362106.433   6819454.404
10 0 59449  79662.000000  0   -1247297.963    449542.534   6749134.725
10 0 59449  79782.000000  0   -1639587.642   1260529.148   6560236.502
10 0 59449  79902.000000  0   -1989211.766   2056012.926   6256055.434
10 0 59449  80022.000000  0   -2290460.171   2821306.214   5841903.747
10 0 59449  80142.000000  0   -2538713.746   3542146.301   5325022.839
10 0 59449  80262.000000  0   -2730516.791   4204963.988   4714463.739
10 0 59449  80382.000000  0   -2863626.216   4797144.668   4020934.556
10 0 59449  80502.000000  0   -2937035.374   5307275.811   3256616.567
10 0 59449  80622.000000  0   -2950972.003   5725375.005   2434951.022
10 0 59449  80742.000000  0   -2906870.459   6043092.598   1570401.141
10 0 59449  80862.000000  0   -2807318.575   6253884.770    678193.467
10 0 59449  80982.000000  0   -2655979.959   6353152.753   -225956.766
10 0 59449  81102.000000  0   -2457494.348   6338344.039  -1126131.086
10 0 59449  81222.000000  0   -2217358.056   6209012.258  -2006499.252
10 0 59449  81342.000000  0   -1941785.497   5966830.345  -2851607.710
10 0 59449  81462.000000  0   -1637558.162   5615561.713  -3646654.089
10 0 59449  81582.000000  0   -1311866.078   5160992.419  -4377747.631
10 0 59449  81702.000000  0    -972144.612   4610823.839  -5032149.423
10 0 59449  81822.000000  0    -625910.797   3974531.744  -5598488.136
10 0 59449  81942.000000  0    -280602.088   3263193.813  -6066950.139
10 0 59449  82062.000000  0      56578.898   2489288.415  -6429439.502
10 0 59449  82182.000000  0     378809.506   1666471.321  -6679705.509
10 0 59449  82302.000000  0     679780.087    809335.239  -6813440.671
10 0 59449  82422.000000  0     953813.635    -66846.274  -6828346.999
10 0 59449  82542.000000  0    1195969.527   -946386.192  -6724170.783
10 0 59449  82662.000000  0    1402129.896  -1813458.140  -6502704.733
10 0 59449  82782.000000  0    1569068.211  -2652373.054  -6167760.527
10 0 59449  82902.000000  0    1694499.914  -3447857.163  -5725111.804
10 0 59449  83022.000000  0    1777112.878  -4185329.420  -5182405.566
10 0 59449  83142.000000  0    1816577.722  -4851170.110  -4549039.448
10 0 59449  83262.000000  0    1813538.074  -5432975.440  -3836010.035
10 0 59449  83382.000000  0    1769580.103  -5919797.116  -3055732.241
10 0 59449  83502.000000  0    1687180.859  -6302359.209  -2221829.742
10 0 59449  83622.000000  0    1569637.703  -6573246.127  -1348899.582
10 0 59449  83742.000000  0    1420979.607  -6727057.370   -452256.355
10 0 59449  83862.000000  0    1245861.864  -6760525.450    452341.625
10 0 59449  83982.000000  0    1049447.673  -6672589.914   1348975.895
10 0 59449  84102.000000  0     837277.811  -6464429.530   2221856.990
10 0 59449  84222.000000  0     615134.009  -6139446.991   3055612.711
10 0 59449  84342.000000  0     388896.854  -5703208.031   3835566.483
10 0 59449  84462.000000  0     164403.392  -5163338.633   4547999.925
10 0 59449  84582.000000  0     -52691.480  -4529382.894   5180396.607
10 0 59449  84702.000000  0    -257047.046  -3812624.072   5721661.363
10 0 59449  84822.000000  0    -443758.539  -3025873.944   6162312.465
10 0 59449  84942.000000  0    -608466.962  -2183234.608   6494641.406
10 0 59449  85062.000000  0    -747454.555  -1299841.525   6712840.014
10 0 59449  85182.000000  0    -857724.103   -391590.051   6813097.163
10 0 59449  85302.000000  0    -937061.314    525151.756   6793662.141
10 0 59449  85422.000000  0    -984078.394   1433838.053   6654873.203
10 0 59449  85542.000000  0    -998237.881   2318043.166   6399151.878
10 0 59449  85662.000000  0    -979857.285   3161758.077   6030963.469
10 0 59449  85782.000000  0    -930094.652   3949681.564   5556744.024
10 0 59449  85902.000000  0    -850914.322   4667500.759   4984793.331
10 0 59449  86022.000000  0    -745034.470   5302157.209   4325136.415
10 0 59449  86142.000000  0    -615856.588   5842092.980   3589351.410
10 0 59449  86262.000000  0    -467378.637   6277468.991   2790370.688
99
